ONEWEB-0311             
1 49097U 21075Y   25102.68956072 -.00000347  00000+0 -92721-3 0  9996
2 49097  87.9014  91.5958 0002228  96.8092 263.3293 13.17648854176936
ONEWEB-0313             
1 49099U 21075AA  25102.93750981  .00000031  00000+0  46365-4 0  9999
2 49099  87.9009  91.5933 0002132  89.3127 270.8249 13.17646637176936
ONEWEB-0314             
1 49100U 21075AB  25102.90387198  .00000028  00000+0  38530-4 0  9996
2 49100  87.9005  91.5338 0001922  99.0831 261.0518 13.17646723176904
ONEWEB-0315             
1 49101U 21075AC  25102.62189329  .00000156  00000+0  39891-3 0  9994
2 49101  87.8828  76.3169 0002292  91.1498 268.9893 13.12441720178698
ONEWEB-0316             
1 49102U 21075AD  25102.63626420  .00000028  00000+0  38723-4 0  9996
2 49102  87.9113  61.0477 0002111  87.6940 272.4434 13.18685023180463
ONEWEB-0317             
1 49103U 21075AE  25102.46291196  .00000347  00000+0  92988-3 0  9992
2 49103  87.8831  76.3629 0001458  77.0806 283.0485 13.12439679178699
ONEWEB-0318             
1 49104U 21075AF  25102.40547263  .00000046  00000+0  84181-4 0  9999
2 49104  87.9110  61.0794 0002173  89.3467 270.7914 13.18684425180396
